[{"OBJECT_NAME":"TITAN 4 CENTAUR R/B","OBJECT_ID":"2003-012B","EPOCH":"2026-04-04T22:02:39.854112","MEAN_MOTION":1.00589403,"ECCENTRICITY":0.00242991,"INCLINATION":11.0758,"RA_OF_ASC_NODE":23.7181,"ARG_OF_PERICENTER":277.8739,"MEAN_ANOMALY":81.8024,"EPHEMERIS_TYPE":0,"CLASSIFICATION_TYPE":"U","NORAD_CAT_ID":27712,"ELEMENT_SET_NO":999,"REV_AT_EPOCH":2505,"BSTAR":0,"MEAN_MOTION_DOT":6.0e-7,"MEAN_MOTION_DDOT":0},{"OBJECT_NAME":"INSAT-3A","OBJECT_ID":"2003-013A","EPOCH":"2026-04-05T13:29:21.033600","MEAN_MOTION":0.99796884,"ECCENTRICITY":0.00114956,"INCLINATION":8.6568,"RA_OF_ASC_NODE":61.7853,"ARG_OF_PERICENTER":316.077,"MEAN_ANOMALY":103.5015,"EPHEMERIS_TYPE":0,"CLASSIFICATION_TYPE":"U","NORAD_CAT_ID":27714,"ELEMENT_SET_NO":999,"REV_AT_EPOCH":8400,"BSTAR":0,"MEAN_MOTION_DOT":-8.2e-7,"MEAN_MOTION_DDOT":0},{"OBJECT_NAME":"ARIANE 5 R/B","OBJECT_ID":"2003-013C","EPOCH":"2026-04-05T15:01:38.547840","MEAN_MOTION":2.24037077,"ECCENTRICITY":0.70771448,"INCLINATION":1.3087,"RA_OF_ASC_NODE":266.1595,"ARG_OF_PERICENTER":336.875,"MEAN_ANOMALY":12.2032,"EPHEMERIS_TYPE":0,"CLASSIFICATION_TYPE":"U","NORAD_CAT_ID":27716,"ELEMENT_SET_NO":999,"REV_AT_EPOCH":18821,"BSTAR":0.00095233216,"MEAN_MOTION_DOT":-7.1e-7,"MEAN_MOTION_DDOT":0},{"OBJECT_NAME":"ARIANE 5 DEB [SYLDA]","OBJECT_ID":"2003-013D","EPOCH":"2026-04-05T13:03:45.696960","MEAN_MOTION":2.22470483,"ECCENTRICITY":0.70824816,"INCLINATION":1.8307,"RA_OF_ASC_NODE":278.8203,"ARG_OF_PERICENTER":297.8451,"MEAN_ANOMALY":9.7962,"EPHEMERIS_TYPE":0,"CLASSIFICATION_TYPE":"U","NORAD_CAT_ID":27717,"ELEMENT_SET_NO":999,"REV_AT_EPOCH":18691,"BSTAR":-0.00014434058,"MEAN_MOTION_DOT":-1.57e-6,"MEAN_MOTION_DDOT":0},{"OBJECT_NAME":"ASIASAT 4","OBJECT_ID":"2003-014A","EPOCH":"2026-04-05T12:13:51.601728","MEAN_MOTION":1.00272577,"ECCENTRICITY":0.00026275,"INCLINATION":4.5194,"RA_OF_ASC_NODE":76.641,"ARG_OF_PERICENTER":301.3796,"MEAN_ANOMALY":146.808,"EPHEMERIS_TYPE":0,"CLASSIFICATION_TYPE":"U","NORAD_CAT_ID":27718,"ELEMENT_SET_NO":999,"REV_AT_EPOCH":4457,"BSTAR":0,"MEAN_MOTION_DOT":-2.19e-6,"MEAN_MOTION_DDOT":0},{"OBJECT_NAME":"ARIANE 1 DEB","OBJECT_ID":"1979-104S","EPOCH":"2026-04-05T08:04:36.771744","MEAN_MOTION":1.93130231,"ECCENTRICITY":0.73105228,"INCLINATION":16.546,"RA_OF_ASC_NODE":22.8012,"ARG_OF_PERICENTER":153.8059,"MEAN_ANOMALY":277.9524,"EPHEMERIS_TYPE":0,"CLASSIFICATION_TYPE":"U","NORAD_CAT_ID":27732,"ELEMENT_SET_NO":999,"REV_AT_EPOCH":8463,"BSTAR":-0.0078601624,"MEAN_MOTION_DOT":-2.21e-6,"MEAN_MOTION_DDOT":0},{"OBJECT_NAME":"COSMOS 2397","OBJECT_ID":"2003-015A","EPOCH":"2026-04-05T07:10:38.676000","MEAN_MOTION":1.00488378,"ECCENTRICITY":0.00434856,"INCLINATION":12.6216,"RA_OF_ASC_NODE":20.5938,"ARG_OF_PERICENTER":7.5096,"MEAN_ANOMALY":176.577,"EPHEMERIS_TYPE":0,"CLASSIFICATION_TYPE":"U","NORAD_CAT_ID":27775,"ELEMENT_SET_NO":999,"REV_AT_EPOCH":8418,"BSTAR":0,"MEAN_MOTION_DOT":-1.88e-6,"MEAN_MOTION_DDOT":0},{"OBJECT_NAME":"SL-12 R/B(2)","OBJECT_ID":"2003-015F","EPOCH":"2026-04-04T16:49:50.458080","MEAN_MOTION":1.00272221,"ECCENTRICITY":0.00104224,"INCLINATION":12.6689,"RA_OF_ASC_NODE":20.9286,"ARG_OF_PERICENTER":34.1811,"MEAN_ANOMALY":162.1944,"EPHEMERIS_TYPE":0,"CLASSIFICATION_TYPE":"U","NORAD_CAT_ID":27780,"ELEMENT_SET_NO":999,"REV_AT_EPOCH":8376,"BSTAR":0,"MEAN_MOTION_DOT":-3.4e-6,"MEAN_MOTION_DDOT":0},{"OBJECT_NAME":"ATLAS AGENA R/B","OBJECT_ID":"1968-063B","EPOCH":"2026-04-05T10:35:30.068736","MEAN_MOTION":1.01777289,"ECCENTRICITY":0.10156633,"INCLINATION":4.57,"RA_OF_ASC_NODE":266.4903,"ARG_OF_PERICENTER":264.8051,"MEAN_ANOMALY":83.2266,"EPHEMERIS_TYPE":0,"CLASSIFICATION_TYPE":"U","NORAD_CAT_ID":27785,"ELEMENT_SET_NO":999,"REV_AT_EPOCH":2564,"BSTAR":0,"MEAN_MOTION_DOT":-2.96e-6,"MEAN_MOTION_DDOT":0},{"OBJECT_NAME":"ATLAS AGENA R/B","OBJECT_ID":"1969-036B","EPOCH":"2026-04-04T20:23:45.801888","MEAN_MOTION":1.03854272,"ECCENTRICITY":0.10611538,"INCLINATION":14.3099,"RA_OF_ASC_NODE":27.2625,"ARG_OF_PERICENTER":247.3764,"MEAN_ANOMALY":101.0796,"EPHEMERIS_TYPE":0,"CLASSIFICATION_TYPE":"U","NORAD_CAT_ID":27786,"ELEMENT_SET_NO":999,"REV_AT_EPOCH":2605,"BSTAR":0,"MEAN_MOTION_DOT":-2.31e-6,"MEAN_MOTION_DDOT":0},{"OBJECT_NAME":"ATLAS AGENA R/B","OBJECT_ID":"1970-069B","EPOCH":"2026-04-04T08:52:11.095104","MEAN_MOTION":1.01704525,"ECCENTRICITY":0.11976581,"INCLINATION":11.5561,"RA_OF_ASC_NODE":136.8343,"ARG_OF_PERICENTER":187.9001,"MEAN_ANOMALY":170.1743,"EPHEMERIS_TYPE":0,"CLASSIFICATION_TYPE":"U","NORAD_CAT_ID":27787,"ELEMENT_SET_NO":999,"REV_AT_EPOCH":2626,"BSTAR":0,"MEAN_MOTION_DOT":4.7e-7,"MEAN_MOTION_DDOT":0},{"OBJECT_NAME":"COSMOS 1261 DEB","OBJECT_ID":"1981-031H","EPOCH":"2026-04-04T01:53:23.853120","MEAN_MOTION":2.01734308,"ECCENTRICITY":0.69514372,"INCLINATION":65.435,"RA_OF_ASC_NODE":2.7621,"ARG_OF_PERICENTER":17.8304,"MEAN_ANOMALY":357.6593,"EPHEMERIS_TYPE":0,"CLASSIFICATION_TYPE":"U","NORAD_CAT_ID":27796,"ELEMENT_SET_NO":999,"REV_AT_EPOCH":18437,"BSTAR":0,"MEAN_MOTION_DOT":-5.86e-6,"MEAN_MOTION_DDOT":0},{"OBJECT_NAME":"COSMOS 1285 DEB","OBJECT_ID":"1981-071P","EPOCH":"2026-04-05T04:24:53.179776","MEAN_MOTION":1.97647768,"ECCENTRICITY":0.71243293,"INCLINATION":64.4189,"RA_OF_ASC_NODE":75.7622,"ARG_OF_PERICENTER":35.245,"MEAN_ANOMALY":355.4648,"EPHEMERIS_TYPE":0,"CLASSIFICATION_TYPE":"U","NORAD_CAT_ID":27800,"ELEMENT_SET_NO":999,"REV_AT_EPOCH":19196,"BSTAR":0,"MEAN_MOTION_DOT":-4.23e-6,"MEAN_MOTION_DDOT":0},{"OBJECT_NAME":"COSMOS 1285 DEB","OBJECT_ID":"1981-071Q","EPOCH":"2026-04-05T05:57:01.736928","MEAN_MOTION":1.97976334,"ECCENTRICITY":0.72379859,"INCLINATION":64.0499,"RA_OF_ASC_NODE":47.5041,"ARG_OF_PERICENTER":38.1746,"MEAN_ANOMALY":355.2582,"EPHEMERIS_TYPE":0,"CLASSIFICATION_TYPE":"U","NORAD_CAT_ID":27801,"ELEMENT_SET_NO":999,"REV_AT_EPOCH":18212,"BSTAR":0,"MEAN_MOTION_DOT":-1.072e-5,"MEAN_MOTION_DDOT":0},{"OBJECT_NAME":"GSAT-2","OBJECT_ID":"2003-018A","EPOCH":"2026-04-04T23:16:26.527872","MEAN_MOTION":0.99844331,"ECCENTRICITY":0.00120232,"INCLINATION":11.0356,"RA_OF_ASC_NODE":42.3164,"ARG_OF_PERICENTER":340.4717,"MEAN_ANOMALY":206.1032,"EPHEMERIS_TYPE":0,"CLASSIFICATION_TYPE":"U","NORAD_CAT_ID":27807,"ELEMENT_SET_NO":999,"REV_AT_EPOCH":8370,"BSTAR":0,"MEAN_MOTION_DOT":1.29e-6,"MEAN_MOTION_DDOT":0},{"OBJECT_NAME":"HELLAS-SAT 2","OBJECT_ID":"2003-020A","EPOCH":"2026-04-05T05:51:02.870208","MEAN_MOTION":1.0027283,"ECCENTRICITY":0.0005759,"INCLINATION":7.1741,"RA_OF_ASC_NODE":68.7424,"ARG_OF_PERICENTER":271.8472,"MEAN_ANOMALY":290.7133,"EPHEMERIS_TYPE":0,"CLASSIFICATION_TYPE":"U","NORAD_CAT_ID":27811,"ELEMENT_SET_NO":999,"REV_AT_EPOCH":4211,"BSTAR":0,"MEAN_MOTION_DOT":-8.0e-7,"MEAN_MOTION_DDOT":0},{"OBJECT_NAME":"BEIDOU-1 G3","OBJECT_ID":"2003-021A","EPOCH":"2026-04-05T12:52:31.727712","MEAN_MOTION":0.99774469,"ECCENTRICITY":0.00193415,"INCLINATION":11.2393,"RA_OF_ASC_NODE":41.8349,"ARG_OF_PERICENTER":304.1204,"MEAN_ANOMALY":68.4906,"EPHEMERIS_TYPE":0,"CLASSIFICATION_TYPE":"U","NORAD_CAT_ID":27813,"ELEMENT_SET_NO":999,"REV_AT_EPOCH":8358,"BSTAR":0,"MEAN_MOTION_DOT":8.0e-7,"MEAN_MOTION_DDOT":0}]
