TITAN 4 CENTAUR R/B     
1 27712U 03012B   26094.91851683  .00000060  00000+0  00000+0 0  9991
2 27712  11.0758  23.7181 0024299 277.8739  81.8024  1.00589403 25059
INSAT-3A                
1 27714U 03013A   26095.56204900 -.00000082  00000+0  00000+0 0  9995
2 27714   8.6568  61.7853 0011495 316.0770 103.5015  0.99796884 84007
ARIANE 5 R/B            
1 27716U 03013C   26095.62614060 -.00000071  00000+0  95233-3 0  9990
2 27716   1.3087 266.1595 7077144 336.8750  12.2032  2.24037077188212
ARIANE 5 DEB [SYLDA]    
1 27717U 03013D   26095.54427890 -.00000157  00000+0 -14434-3 0  9995
2 27717   1.8307 278.8203 7082481 297.8451   9.7962  2.22470483186911
ASIASAT 4               
1 27718U 03014A   26095.50962502 -.00000219  00000+0  00000+0 0  9995
2 27718   4.5194  76.6410 0002627 301.3796 146.8080  1.00272577 44578
ARIANE 1 DEB            
1 27732U 79104S   26095.33653671 -.00000221  00000+0 -78602-2 0  9999
2 27732  16.5460  22.8012 7310522 153.8059 277.9524  1.93130231 84631
COSMOS 2397             
1 27775U 03015A   26095.29905875 -.00000188  00000+0  00000+0 0  9990
2 27775  12.6216  20.5938 0043485   7.5096 176.5770  1.00488378 84189
SL-12 R/B(2)            
1 27780U 03015F   26094.70127845 -.00000340  00000+0  00000+0 0  9994
2 27780  12.6689  20.9286 0010422  34.1811 162.1944  1.00272221 83760
ATLAS AGENA R/B         
1 27785U 68063B   26095.44132024 -.00000296  00000+0  00000+0 0  9990
2 27785   4.5700 266.4903 1015663 264.8051  83.2266  1.01777289 25641
ATLAS AGENA R/B         
1 27786U 69036B   26094.84983567 -.00000231  00000+0  00000+0 0  9990
2 27786  14.3099  27.2625 1061153 247.3764 101.0796  1.03854272 26051
ATLAS AGENA R/B         
1 27787U 70069B   26094.36957286  .00000047  00000+0  00000+0 0  9999
2 27787  11.5561 136.8343 1197658 187.9001 170.1743  1.01704525 26267
COSMOS 1261 DEB         
1 27796U 81031H   26094.07874830 -.00000586  00000+0  00000+0 0  9990
2 27796  65.4350   2.7621 6951437  17.8304 357.6593  2.01734308184371
COSMOS 1285 DEB         
1 27800U 81071P   26095.18394884 -.00000423  00000+0  00000+0 0  9999
2 27800  64.4189  75.7622 7124329  35.2450 355.4648  1.97647768191963
COSMOS 1285 DEB         
1 27801U 81071Q   26095.24793677 -.00001072  00000+0  00000+0 0  9991
2 27801  64.0499  47.5041 7237985  38.1746 355.2582  1.97976334182126
GSAT-2                  
1 27807U 03018A   26094.96975148  .00000129  00000+0  00000+0 0  9996
2 27807  11.0356  42.3164 0012023 340.4717 206.1032  0.99844331 83709
HELLAS-SAT 2            
1 27811U 03020A   26095.24378322 -.00000080  00000+0  00000+0 0  9994
2 27811   7.1741  68.7424 0005759 271.8472 290.7133  1.00272830 42115
BEIDOU-1 G3             
1 27813U 03021A   26095.53647833  .00000080  00000+0  00000+0 0  9994
2 27813  11.2393  41.8349 0019341 304.1204  68.4906  0.99774469 83585
